placeId;location;placeName;id;0;1;2;3;4;5;6;7;8;9;10;11;12;13;14;15;16;17;18;19;20;21;22;23;city;state;country;latitude;longitude;latitudeSchematic;longitudeSchematic
1;61, Stampfenbachstrasse, Unterstrass, Kreis 6, Zürich, Bezirk Zürich, Zürich, 8006, Switzerland;terra vermessungen ag;;0.0;0.0;0.0;0.0;0.0;0.0;0.7108333333333333;1.4477777777777778;1.861388888888889;1.7847222222222223;2.149722222222222;4.560555555555555;3.546388888888889;2.8091666666666666;3.2247222222222223;4.064444444444445;2.504722222222222;0.0;0.0;0.0;0.0;0.0;0.0;0.0;Zurich;Zurich;Switzerland;47.38120302083334;8.542403233796296;47.3448906736509;8.56386750111913
2;Pestalozzianum, Reitergasse, Langstrasse, Aussersihl, Zürich, Bezirk Zürich, Zürich, 8090, Switzerland;Europaallee;;0.0;0.0;0.0;0.0;0.0;0.0;0.0;0.0;0.0;0.0;0.5563888888888889;0.7847222222222222;0.02722222222222222;1.0;0.6475;0.0;0.0;0.0;0.0;0.0;0.0;0.0;0.0;0.0;Zurich;Zurich;Switzerland;47.378208325;8.534515525;47.33216578243;8.48938298634029
3;Central, Hochschulen, Altstadt, Zürich, Bezirk Zürich, Zürich, 8001, Switzerland;Zurich HB Main Station;;0.0;0.0;0.0;0.0;0.0;0.0;0.0;0.0;0.0;0.0;0.0;0.0;0.9027777777777778;0.0;0.23805555555555555;1.0;1.0;0.8580555555555556;0.0;0.0;0.0;0.0;0.0;0.0;Zurich;Zurich;Switzerland;47.3767605;8.5433129;47.3217088794182;8.56341198194874
4;374, Wehntalerstrasse, Affoltern, Kreis 11, Zürich, Bezirk Zürich, Zürich, 8046, Switzerland;Place #3;;0.0;0.0;0.0;0.0;0.0;0.0;0.0;0.0;0.0;0.0;0.0;0.0;0.0;0.0;0.0;0.46805555555555556;0.0;0.0;0.86;0.0;0.0;0.0;0.0;0.0;Zurich;Zurich;Switzerland;47.4139024;8.5202158;47.5035240732496;8.45856929447319
5;57, Furttalstrasse, Affoltern, Kreis 11, Zürich, Bezirk Zürich, Zürich, 8046, Switzerland;Georg-Kempf-Strasse 53;;25.0;25.0;25.0;25.0;25.0;24.856944444444444;20.735555555555557;18.435;18.0;17.74;18.295;20.25;19.0;18.0;17.798333333333332;17.184722222222224;18.446666666666665;21.248333333333335;23.7475;24.27638888888889;25.0;25.0;25.0;25.0;Zurich;Zurich;Switzerland;47.42135732;8.499648596250001;47.5094029504417;8.40234929162024
6;Neuapostolische Kirche Zürich-Affoltern, 180, In Böden, Affoltern, Kreis 11, Zürich, Bezirk Zürich, Zürich, 8046, Switzerland;Migros Supermarkt;;3.0;3.0;3.0;3.0;3.0;3.0;3.0;3.0;3.0;3.2094444444444443;4.624444444444444;2.6783333333333332;2.0;2.0;2.0;2.0;3.1469444444444443;3.633888888888889;3.0;3.0;3.0;3.0;3.0;3.0;Zurich;Zurich;Switzerland;47.420071033333336;8.507514277777778;47.5108582771427;8.4235656765952
7;3, Weiherweg, Niederuster, Uster, Bezirk Uster, Zürich, 8612, Switzerland;Uster Technologies AG;;0.0;0.0;0.0;0.0;0.0;0.0;0.0;0.5883333333333334;0.6302777777777778;1.5352777777777777;0.0;0.0;0.0;0.0;0.0;0.0;0.0;0.0;0.0;0.0;0.0;0.0;0.0;0.0;Zurich;Zurich;Switzerland;47.34706443333333;8.704372733333333;47.306890512425;8.88087473369768
8;40, Apfelbaumstrasse, Oerlikon, Kreis 11, Zürich, Bezirk Zürich, Zürich, 8050, Switzerland;Apfelbaumstrasse 40;;0.0;0.0;0.0;0.0;0.0;0.0;0.0;0.0;0.0;0.0;0.0;0.0;0.0;0.6177777777777778;0.9016666666666666;0.7177777777777777;0.0;0.0;0.0;0.0;0.0;0.0;0.0;0.0;Zurich;Zurich;Switzerland;47.40704298333333;8.556431866666665;47.3448906736509;8.56386750111913
9;112, Weinbergstrasse, Unterstrass, Kreis 6, Zürich, Bezirk Zürich, Zürich, 8006, Switzerland;Place #8;;0.0;0.0;0.0;0.0;0.0;0.0;0.8694444444444445;1.0175;1.0;1.0;1.0;0.0033333333333333335;0.0;0.0;0.0;0.0;0.0;0.0;0.0;0.0;0.0;0.0;0.0;0.0;Zurich;Zurich;Switzerland;47.38617755;8.54202665;47.4134953077769;8.56429994776581
10;Neumarkt Oerlikon, 354, Hofwiesenstrasse, Oerlikon, Kreis 11, Zürich, Bezirk Zürich, Zürich, 8050, Switzerland;Hofwiesenstrasse 363;;0.0;0.0;0.0;0.0;0.0;0.0;0.0;0.0;0.0;0.0;1.2741666666666667;1.0;0.9211111111111111;0.59;0.08166666666666667;0.0;0.0;0.6755555555555556;0.0;0.0;0.0;0.0;0.0;0.0;Zurich;Zurich;Switzerland;47.410883589523806;8.542534602380954;47.5029903545163;8.549458581398
11;24,26, Obere Leihofstrasse, Tanne (Wädenswil), Wädenswil, Bezirk Horgen, Zürich, 8820, Switzerland;Obere Leihofstrasse 1;;2.0;2.0;2.0;2.0;2.0;2.0;2.0;2.0;2.0;2.0;2.0;2.355;3.045;4.0;4.0;3.696388888888889;3.0;3.0;2.3569444444444443;2.0;2.0;2.0;2.0;2.0;Zurich;Zurich;Switzerland;47.223239400000004;8.6667704;47.1254566996636;8.74338090479053
12;Langrütistrasse, Tanne (Wädenswil), Wädenswil, Bezirk Horgen, Zürich, 8820, Switzerland;Place #11;;0.0;0.0;0.0;0.0;0.0;0.0;0.0;0.44666666666666666;0.8033333333333333;1.0;1.0;1.0;0.7725;0.0;0.0;0.0;0.0;0.0;0.0;0.0;0.0;0.0;0.0;0.0;Zurich;Zurich;Switzerland;47.213926150000006;8.664415949999999;47.1174102970247;8.73456832689097
13;Sust, 27, Bahnhofstrasse, Vorder Maurimoos, Horgen, Bezirk Horgen, Zürich, 8810, Switzerland;Horgen;;1.0;1.0;1.0;1.0;1.0;1.0;1.0;0.36027777777777775;0.0;0.0;0.0;0.0;0.0;0.2075;1.0;1.0;1.0;1.0;1.0;1.0;1.0;1.0;1.0;1.0;Zurich;Zurich;Switzerland;47.26139598333334;8.598602633333334;47.1420778780494;8.65494584912556
14;Wissi, Heister, Schinznach, Bezirk Brugg, Aargau, 5107, Switzerland;Schinznach-Dorf;;0.0;0.0;0.0;0.0;0.0;0.0;0.0;0.0;0.3055555555555556;1.0;1.0;0.8366666666666667;0.9441666666666667;1.0;1.0;1.0;0.6619444444444444;0.0;0.0;0.0;0.0;0.0;0.0;0.0;Zurich;Zurich;Switzerland;47.45757439970238;8.130000652083334;47.469233884111;8.06462651325799
15;Kappeliholzstrasse, Höngg, Kreis 10, Zürich, Bezirk Zürich, Zürich, 8093, Switzerland;Holderbachhütte;;1.0;1.0;1.0;1.0;1.0;1.0;1.0;1.0;1.0;1.0;1.0;0.8283333333333334;0.0;0.0;0.0;0.18055555555555555;1.5625;2.0;1.396111111111111;1.0;1.0;1.0;1.0;1.0;Zurich;Zurich;Switzerland;47.409960186666666;8.50145258;47.4814008232719;8.39239613364577
16;8, Cäsar-Ritz-Strasse, Affoltern, Kreis 11, Zürich, Bezirk Zürich, Zürich, 8046, Switzerland;Place #15;;1.0;1.0;1.0;1.0;1.0;1.0;1.0;1.0;1.0;1.0;0.3347222222222222;0.0;0.0;0.0;0.0;0.0;0.0;0.8413888888888889;0.8136111111111111;1.0;1.0;1.0;1.0;1.0;Zurich;Zurich;Switzerland;47.42499825;8.497004700000002;47.5160441952064;8.39948041200918
17;7, Schaffhauserplatz, Unterstrass, Kreis 6, Zürich, Bezirk Zürich, Zürich, 8006, Switzerland;Unterstrass;;0.0;0.0;0.0;0.0;0.0;0.0;1.4808333333333332;0.6313888888888889;0.0;0.0;0.0;0.0;0.0;0.0;0.0;0.0;0.0;0.0;0.0;0.0;0.0;0.0;0.0;0.0;Zurich;Zurich;Switzerland;47.391495899999995;8.53862805;47.4455187695126;8.52416193683562
18;50, Florenstrasse, Sonnenberg, Felsenhof, Seen, Winterthur, Bezirk Winterthur, Zürich, 8405, Switzerland;Winterthur;;0.0;0.0;0.0;0.0;0.0;0.0;0.0;0.53;0.7247222222222223;0.7744444444444445;0.10277777777777777;0.0;0.0;0.0;0.0;0.0;0.0;0.0;0.0;0.0;0.0;0.0;0.0;0.0;Zurich;Zurich;Switzerland;47.48537011777777;8.77276838888889;47.5440236631442;8.90760905690115
19;Reservoir Waidberg, 29, Waidbergweg, Höngg, Kreis 10, Zürich, Bezirk Zürich, Zürich, 8037, Switzerland;Reservoir Waidberg;;1.0;1.0;1.0;1.0;1.0;1.0;1.0;0.5411111111111111;0.6591666666666667;1.0;1.0;1.0;1.0;1.0;1.0;1.0;1.0;1.0;1.0;1.0;1.0;1.0;1.0;1.0;Zurich;Zurich;Switzerland;47.4030403;8.5138952;47.4687885546222;8.42014055053732
20;H14, Walter-Mittelholzer-Weg, Egetswil, Kloten, Bezirk Bülach, Zürich, 8302, Switzerland;Zurich Airport;;0.0;0.0;0.0;0.0;0.0;0.0;0.0;0.0;0.0;0.6283333333333333;0.8808333333333334;0.4538888888888889;1.0;1.0;0.7752777777777777;0.0;0.0;0.0;0.0;0.0;0.0;0.0;0.0;0.0;Zurich;Zurich;Switzerland;47.44886685;8.5680057;47.5645586899426;8.61726021635989
